{
  "type": "FeatureCollection",
  "features": [
    {
      "properties": {
        "name": "Everts väg",
        "stroke": "#FF1493"
      },
      "geometry": {
        "type": "LineString",
        "coordinates": [
          [
            14.82957422733307,
            57.98532845183103
          ],
          [
            14.829402565956117,
            57.985362578294165
          ],
          [
            14.82910215854645,
            57.9853426711946
          ],
          [
            14.828742742538452,
            57.98530570083753
          ],
          [
            14.828501343727114,
            57.985294325335374
          ],
          [
            14.828115105628969,
            57.98530854471251
          ],
          [
            14.827664494514467,
            57.98535689055258
          ],
          [
            14.827471375465395,
            57.98537395377464
          ],
          [
            14.827117323875429,
            57.98540239246009
          ],
          [
            14.82684910297394,
            57.98541661179432
          ],
          [
            14.826682806015016,
            57.98540523632738
          ],
          [
            14.826462864875795,
            57.985371109904875
          ],
          [
            14.826140999794008,
            57.98532560795763
          ],
          [
            14.825899600982668,
            57.98530854471251
          ]
        ]
      },
      "type": "Feature"
    },
    {
      "properties": {
        "name": "Svinhuset",
        "stroke": "#DC143C"
      },
      "geometry": {
        "type": "LineString",
        "coordinates": [
          [
            14.828742742538452,
            57.98530570083753
          ],
          [
            14.828549623489382,
            57.98537964151353
          ],
          [
            14.828495979309084,
            57.985479176797945
          ],
          [
            14.828528165817263,
            57.98558439951214
          ]
        ]
      },
      "type": "Feature"
    },
    {
      "properties": {
        "name": "Lukas väg",
        "stroke": "#9932CC"
      },
      "geometry": {
        "type": "LineString",
        "coordinates": [
          [
            14.826081991195679,
            57.984404181090646
          ],
          [
            14.826071262359621,
            57.98452647058822
          ],
          [
            14.826028347015383,
            57.984640227885606
          ],
          [
            14.826055169105532,
            57.984739765224475
          ],
          [
            14.826017618179323,
            57.98482792663653
          ],
          [
            14.825985431671144,
            57.98495021468758
          ],
          [
            14.82607662677765,
            57.98500709270862
          ],
          [
            14.826226830482485,
            57.985035531685305
          ],
          [
            14.826382398605348,
            57.98500709270862
          ],
          [
            14.826500415802004,
            57.98499287321185
          ],
          [
            14.826570153236391,
            57.98499571711164
          ]
        ]
      },
      "type": "Feature"
    },
    {
      "properties": {
        "name": "Johannas väg",
        "stroke": "#FFD700"
      },
      "geometry": {
        "type": "LineString",
        "coordinates": [
          [
            14.827339947223665,
            57.98472412366097
          ],
          [
            14.827288985252382,
            57.98472412366097
          ],
          [
            14.827235341072084,
            57.984739765224475
          ],
          [
            14.827149510383608,
            57.984746875023816
          ],
          [
            14.82707977294922,
            57.98475540678114
          ],
          [
            14.827055633068086,
            57.984790955748196
          ],
          [
            14.827001988887789,
            57.98482223881003
          ],
          [
            14.82694834470749,
            57.98484925597781
          ],
          [
            14.826918840408327,
            57.98488480485173
          ],
          [
            14.826867878437044,
            57.98492035369037
          ],
          [
            14.826822280883789,
            57.98494026102461
          ],
          [
            14.826774001121523,
            57.98497296590685
          ],
          [
            14.82672840356827,
            57.98499571711164
          ],
          [
            14.826639890670778,
            57.98500424880972
          ],
          [
            14.826537966728212,
            57.985032687788646
          ],
          [
            14.8264279961586,
            57.98505686090297
          ],
          [
            14.82633411884308,
            57.9850881437326
          ],
          [
            14.82623487710953,
            57.98512084847982
          ],
          [
            14.826165139675142,
            57.98516777263017
          ],
          [
            14.826100766658785,
            57.98521896254231
          ],
          [
            14.82607662677765,
            57.98526873044229
          ],
          [
            14.82607662677765,
            57.98529290339734
          ]
        ]
      },
      "type": "Feature"
    },
    {
      "properties": {
        "name": "Levis väg",
        "stroke": "#228B22"
      },
      "geometry": {
        "type": "LineString",
        "coordinates": [
          [
            14.826618432998659,
            57.985035531685305
          ],
          [
            14.826655983924867,
            57.98507819010795
          ],
          [
            14.826645255088808,
            57.985140755702616
          ],
          [
            14.826615750789644,
            57.985184835942356
          ],
          [
            14.826527237892153,
            57.985231760008915
          ],
          [
            14.826446771621706,
            57.985294325335374
          ],
          [
            14.826358258724214,
            57.98531138858726
          ],
          [
            14.826352894306185,
            57.98534693700258
          ]
        ]
      },
      "type": "Feature"
    },
    {
      "properties": {
        "name": "Theas väg",
        "stroke": "#FF8C00"
      },
      "geometry": {
        "type": "LineString",
        "coordinates": [
          [
            14.826122224330902,
            57.98434303618533
          ],
          [
            14.82623487710953,
            57.9843487240879
          ],
          [
            14.82632875442505,
            57.984380007535904
          ],
          [
            14.826444089412691,
            57.984438308434285
          ],
          [
            14.826537966728212,
            57.98447527968654
          ],
          [
            14.826658666133882,
            57.984520782713865
          ],
          [
            14.826776683330536,
            57.98451367286967
          ],
          [
            14.826873242855074,
            57.98450229711599
          ],
          [
            14.826953709125519,
            57.984490921358706
          ],
          [
            14.826988577842714,
            57.98453215846166
          ],
          [
            14.826996624469757,
            57.98457339551714
          ],
          [
            14.827036857604982,
            57.98458903714647
          ],
          [
            14.827128052711487,
            57.9846061007343
          ],
          [
            14.82721656560898,
            57.9846331180651
          ],
          [
            14.827272891998293,
            57.98468715266552
          ],
          [
            14.827307760715486,
            57.98469710639882
          ]
        ]
      },
      "type": "Feature"
    },
    {
      "properties": {
        "name": "Berndts väg",
        "stroke": "#FF8C00"
      },
      "geometry": {
        "type": "LineString",
        "coordinates": [
          [
            14.828501343727114,
            57.985294325335374
          ],
          [
            14.828453063964846,
            57.985177726229935
          ],
          [
            14.828383326530458,
            57.98509240957088
          ],
          [
            14.828377962112429,
            57.985035531685305
          ],
          [
            14.828394055366516,
            57.984953058590776
          ],
          [
            14.828415513038637,
            57.98488480485173
          ],
          [
            14.828522801399231,
            57.984839302286794
          ],
          [
            14.828689098358156,
            57.984810863154344
          ],
          [
            14.828774929046633,
            57.98478242399932
          ],
          [
            14.82886075973511,
            57.98471132601302
          ],
          [
            14.828941226005556,
            57.98465729144903
          ],
          [
            14.828984141349794,
            57.984603256803574
          ],
          [
            14.828984141349794,
            57.984557753881006
          ]
        ]
      },
      "type": "Feature"
    },
    {
      "properties": {
        "name": "Timothys väg",
        "stroke": "#9ACD32"
      },
      "geometry": {
        "type": "LineString",
        "coordinates": [
          [
            14.82894390821457,
            57.984489499388786
          ],
          [
            14.828831255435945,
            57.98442124476654
          ],
          [
            14.828638136386873,
            57.98441555687547
          ],
          [
            14.828536212444307,
            57.98437289766377
          ],
          [
            14.828302860260012,
            57.98435441198956
          ],
          [
            14.828160703182222,
            57.98435299001422
          ],
          [
            14.828029274940492,
            57.984368631739784
          ],
          [
            14.82795149087906,
            57.984360099890324
          ],
          [
            14.827908575534822,
            57.98432739444859
          ],
          [
            14.827822744846346,
            57.98430748677378
          ],
          [
            14.82772618532181,
            57.98431744061257
          ],
          [
            14.827688634395601,
            57.984325972472185
          ]
        ]
      },
      "type": "Feature"
    },
    {
      "properties": {
        "name": "Alvas",
        "stroke": "#228B22"
      },
      "geometry": {
        "type": "LineString",
        "coordinates": [
          [
            14.827702045440676,
            57.98438285148436
          ],
          [
            14.827795922756197,
            57.9844112909566
          ],
          [
            14.82785761356354,
            57.98444257434995
          ],
          [
            14.827908575534822,
            57.984489499388786
          ],
          [
            14.827954173088074,
            57.98452362665115
          ],
          [
            14.828029274940492,
            57.98455064404414
          ],
          [
            14.828117787837984,
            57.98458192731581
          ],
          [
            14.828192889690401,
            57.98460894466482
          ],
          [
            14.828254580497743,
            57.98464307181341
          ],
          [
            14.828316271305086,
            57.98467719892945
          ],
          [
            14.828386008739473,
            57.98471559189619
          ],
          [
            14.828428924083711,
            57.98474971894315
          ],
          [
            14.828479886054993,
            57.98479948749504
          ],
          [
            14.828463792800905,
            57.98482366076674
          ],
          [
            14.828415513038637,
            57.98488480485173
          ]
        ]
      },
      "type": "Feature"
    }
    
  ]
}
